NANOSATC-BR1            
1 40024U 14033Q   26068.98267556  .00020336  00000+0  74295-3 0  9994
2 40024  98.0845  92.7804 0004644 147.6715 212.4808 15.28136801638811
STARLINK-33916          
1 63792U 25091T   26068.98130431  .00031647  00000+0  11539-2 0  9996
2 63792  43.0063  51.1496 0002449 273.9954  86.0617 15.27600278 48940
